STARLINK-31135          
1 58771U 24011G   24215.94206917 -.00000253  00000+0  17163-5 0  9991
2 58771  53.1585 144.4211 0001501  91.2221 268.8941 15.04909291 31763
STARLINK-31136          
1 58772U 24011H   24215.80602008  .00001372  00000+0  11518-3 0  9996
2 58772  53.1593 144.9939 0001502  93.3441 266.7721 15.04923995 31741
STARLINK-31073          
1 58773U 24011J   24215.80280082 -.00000962  00000+0 -47830-4 0  9994
2 58773  53.1594 144.9824 0001793  89.4976 270.6220 15.04919796 31749
STARLINK-31122          
1 58774U 24011K   24215.93240436  .00000830  00000+0  77345-4 0  9994
2 58774  53.1598 144.3578 0001538  91.6138 268.5028 15.04917389 31766
STARLINK-31123          
1 58775U 24011L   24215.53071364  .00000250  00000+0  36862-4 0  9998
2 58775  53.1589 146.1185 0002051  93.6642 266.4582 15.04932351 31706
STARLINK-31117          
1 58776U 24011M   24215.52748742  .00001131  00000+0  98373-4 0  9993
2 58776  53.1596 146.0991 0001445  83.0786 277.0368 15.04926302 31706
STARLINK-31132          
1 58777U 24011N   24215.93577755  .00001963  00000+0  78359-4 0  9998
2 58777  53.1605 115.0229 0000681 112.8145 247.2927 15.30204101 32187
STARLINK-31120          
1 58778U 24011P   24215.78240139  .00005000  00000+0  36837-3 0  9995
2 58778  53.1589 144.8464 0002315  85.1275 274.9979 15.04926128 31748
STARLINK-31142          
1 58779U 24011Q   24215.78668339  .00002079  00000+0  16447-3 0  9990
2 58779  53.1599 144.8729 0001451  95.9288 264.1867 15.04939721 31747
STARLINK-31103          
1 58780U 24011R   24215.91668981  .00232339  00000+0  11424-2 0  9993
2 58780  53.1496  94.2594 0002530 162.1322 127.0710 15.81002178  5936
STARLINK-31099          
1 58781U 24011S   24215.50710155  .00001218  00000+0  10444-3 0  9992
2 58781  53.1593 145.9752 0001403  90.5168 269.5983 15.04921045 31701
STARLINK-31060          
1 58782U 24011T   24215.90390788 -.00003012  00000+0 -96177-4 0  9997
2 58782  53.1610 116.2423 0001392  97.3944 262.7214 15.27994773 32045
STARLINK-31047          
1 58783U 24011U   24215.82951047 -.00000835  00000+0 -38971-4 0  9998
2 58783  53.1599 144.4273 0001466  89.3668 270.7490 15.04920423 31752
STARLINK-31039          
1 58784U 24011V   24215.83595074  .00000098  00000+0  26262-4 0  9993
2 58784  53.1602 144.4697 0001759  92.3017 267.8174 15.04913959 31757
STARLINK-31034          
1 58785U 24011W   24215.89856840  .00003624  00000+0  14345-3 0  9997
2 58785  53.1600 114.0517 0001488 118.7010 241.4139 15.28015348 32194
STARLINK-31024          
1 58786U 24011X   24215.83272934  .00000704  00000+0  68532-4 0  9992
2 58786  53.1599 144.4525 0001918  91.1203 269.0007 15.04920368 31756
STARLINK-31189          
1 58787U 24012A   24215.71599014  .00002307  00000+0  97984-4 0  9996
2 58787  42.9995 218.1467 0000757 268.1114  91.9650 15.25912045 31981
STARLINK-31185          
1 58788U 24012B   24215.45193721  .00061747  00000+0  23699-2 0  9996
2 58788  43.0046 219.6063 0001166  29.8524 330.2393 15.25638576 31944
STARLINK-31166          
1 58789U 24012C   24215.72942812  .00001835  00000+0  79989-4 0  9997
2 58789  43.0002 217.3994 0000963 298.3411  61.7343 15.25906182 31994
STARLINK-31187          
1 58790U 24012D   24215.70920268  .00000118  00000+0  14345-4 0  9996
2 58790  43.0015 218.0952 0001251 279.6492  80.4217 15.25906426 31982
STARLINK-31162          
1 58791U 24012E   24215.72730676 -.00003813  00000+0 -13612-3 0  9993
2 58791  42.9998 218.2496 0001159 279.8593  80.2127 15.25886047 31981
STARLINK-31184          
1 58793U 24012G   24215.70240992  .00009178  00000+0  35999-3 0  9990
2 58793  43.0058 218.0459 0001253 277.8032  82.2676 15.25934617 31988
STARLINK-31192          
1 58794U 24012H   24215.72263709  .00003867  00000+0  15759-3 0  9995
2 58794  43.0007 217.3276 0001283 259.7254 100.3453 15.25911369 31995
STARLINK-31161          
1 58795U 24012J   24215.69789660  .00000778  00000+0  39565-4 0  9991
2 58795  42.9981 218.0198 0000669 278.7306  81.3469 15.25908750 31986
STARLINK-31195          
1 58796U 24012K   24215.69562928  .00000665  00000+0  35259-4 0  9999
2 58796  42.9988 218.0019 0001175 268.4101  91.6615 15.25909449 31981
STARLINK-31193          
1 58797U 24012L   24215.69337380  .00006798  00000+0  26943-3 0  9994
2 58797  42.9983 217.9864 0001524 265.2590  94.8087 15.25914905 31989
STARLINK-31168          
1 58798U 24012M   24215.42928159  .00004423  00000+0  17883-3 0  9992
2 58798  42.9979 219.4468 0000835 248.5720 111.5042 15.25909609 31944
STARLINK-31154          
1 58799U 24012N   24215.91668981  .00175628  00000+0  16619-2 0  9992
2 58799  42.9973 187.5208 0002963 200.5599 178.6995 15.65646323  5792
STARLINK-31191          
1 58800U 24012P   24215.42701511  .00002736  00000+0  11437-3 0  9991
2 58800  43.0000 219.4349 0000962 265.0084  95.0657 15.25914788 31943
STARLINK-31170          
1 58801U 24012Q   24215.42473759  .00000357  00000+0  23476-4 0  9996
2 58801  43.0005 219.4201 0001372 276.1216  83.9479 15.25937139 31945
STARLINK-31173          
1 58802U 24012R   24215.63771489  .00001802  00000+0  78716-4 0  9994
2 58802  43.0016 191.8581 0000771 285.3931  74.6835 15.25910658 32277
STARLINK-31141          
1 58803U 24012S   24215.41795844  .00003219  00000+0  13278-3 0  9997
2 58803  43.0012 219.3706 0001093 268.3698  91.7028 15.25921230 31943
STARLINK-31188          
1 58804U 24012T   24215.42022076  .00005089  00000+0  20413-3 0  9995
2 58804  42.9992 219.3895 0001116 288.3468  71.7261 15.25930277 31949
STARLINK-31105          
1 58805U 24012U   24215.91668981  .00080222  00000+0  14434-2 0  9998
2 58805  42.9994 205.2479 0019984 127.2309 135.4444 15.48662931  5914
STARLINK-31138          
1 58806U 24012V   24215.72037316  .00001532  00000+0  68362-4 0  9998
2 58806  42.9999 217.3086 0000760 255.2638 104.8129 15.25919932 31995
STARLINK-31163          
1 58807U 24012W   24215.73847873  .00000770  00000+0  39287-4 0  9994
2 58807  42.9990 217.4728 0000607  20.0238 340.0637 15.25899144 31995
STARLINK-31174          
1 58808U 24012X   24215.73621091 -.00000958  00000+0 -26778-4 0  9998
2 58808  43.0012 217.4589 0001298 336.5744  23.5048 15.25918231 31990
STARLINK-31169          
1 58809U 24012Y   24215.73394438  .00002042  00000+0  87881-4 0  9997
2 58809  43.0013 217.4350 0001186 293.6362  66.4364 15.25912323 31996
STARLINK-31233          
1 58826U 24017A   24215.91668981  .00031286  00000+0  93901-3 0  9999
2 58826  53.1597  46.0181 0000741  83.5540 332.7213 15.34204501  5919
STARLINK-31271          
1 58827U 24017B   24215.91668981  .00003608  00000+0  11853-3 0  9993
2 58827  53.1604  46.2668 0002103  73.1644 214.3539 15.34222022  5863
STARLINK-31222          
1 58828U 24017C   24215.91668981 -.00007096  00000+0 -20019-3 0  9995
2 58828  53.1608  46.2139 0001482  74.3450 238.9226 15.34225546  5867
STARLINK-31258          
1 58829U 24017D   24215.91668981  .00007719  00000+0  24072-3 0  9999
2 58829  53.1601  46.2101 0001509  95.1658 220.0010 15.34218962  5879
STARLINK-31253          
1 58830U 24017E   24215.91668981  .00029409  00000+0  88366-3 0  9997
2 58830  53.1605  46.1599 0001175  85.9311 254.9217 15.34200758  5876
STARLINK-31232          
1 58831U 24017F   24215.91668981  .00068981  00000+0  20466-2 0  9992
2 58831  53.1604  46.1129 0001655  60.2525 304.4081 15.34205342  5820
STARLINK-31263          
1 58832U 24017G   24215.91668981  .00015374  00000+0  46815-3 0  9998
2 58832  53.1603  46.1089 0001129  90.6528 275.9653 15.34200504  5823
STARLINK-31175          
1 58833U 24017H   24215.94050810  .00016086  00000+0  38881-3 0  9993
2 58833  53.1629  39.1923 0001272 315.2233  44.8670 15.41333103 30638
STARLINK-31171          
1 58834U 24017J   24215.91668981  .00016381  00000+0  49777-3 0  9999
2 58834  53.1602  46.0600 0001271  80.1307 312.2175 15.34216580  5712
STARLINK-31246          
1 58835U 24017K   24215.91668981  .00049416  00000+0  14737-2 0  9992
2 58835  53.1597  46.0088 0001213  77.4879 340.6307 15.34192744  5925
STARLINK-31251          
1 58836U 24017L   24215.91668981  .00037454  00000+0  11212-2 0  9997
2 58836  53.1594  45.9620 0001469  80.3732   1.6529 15.34199321  5914
STARLINK-31172          
1 58837U 24017M   24215.91668981 -.00000131  00000+0  72708-5 0  9991
2 58837  53.1607  42.6429 0001591  69.9195 249.6846 15.34224864  5910
STARLINK-31249          
1 58838U 24017N   24215.91668981  .00067015  00000+0  19899-2 0  9994
2 58838  53.1593  45.9573 0001787 124.4929 319.3159 15.34192565  5813
STARLINK-31250          
1 58839U 24017P   24215.91668981  .00029960  00000+0  89971-3 0  9991
2 58839  53.1592  45.9104 0001189 113.2257 354.5413 15.34209642  5919
STARLINK-31248          
1 58840U 24017Q   24215.83865110  .00084089  00000+0  29623-2 0  9997
2 58840  53.1576  46.3422 0001214 355.4366   4.6623 15.28589380 30637
STARLINK-31236          
1 58841U 24017R   24215.91668981  .00013668  00000+0  41743-3 0  9997
2 58841  53.1592  45.9065 0001232  86.4876  23.1434 15.34208270  5867
STARLINK-31228          
1 58842U 24017S   24215.91668981  .00000781  00000+0  34411-4 0  9995
2 58842  53.1591  45.8551 0000392 111.5951  23.7943 15.34212328  5710
STARLINK-31280          
1 58843U 24017T   24215.91668981  .00018271  00000+0  55382-3 0  9998
2 58843  53.1589  45.8059 0001219  78.9813  80.3086 15.34212535  5912
STARLINK-31269          
1 58844U 24017U   24215.91135635  .00000833  00000+0  77580-4 0  9994
2 58844  53.1602  69.8304 0001296 102.0752 258.0383 15.04917144 30191
STARLINK-31264          
1 58845U 24017V   24215.87487231  .00002888  00000+0  22112-3 0  9994
2 58845  53.1589  69.6005 0001153  98.5338 261.5783 15.04909291 30190
STARLINK-31273          
1 58846U 24017W   24215.91668981 -.00004095  00000+0 -11081-3 0  9990
2 58846  53.1586  45.8022 0001141  87.6928  73.4434 15.34211790  5912
